{
  "norad_id": 57445,
  "name": "STARLINK-30215",
  "history": [
    {
      "epoch": "2026-03-28T21:04:01.301376Z",
      "apogee_km": 483.31843936115,
      "perigee_km": 482.77503360921946,
      "latitude_deg": 4.720768273405357e-05,
      "longitude_deg": 9.417899924878546,
      "height_km": 482.5964405283293,
      "semi_major_axis_km": 6861.183736485184,
      "eccentricity": 3.96e-05,
      "inclination_deg": 42.9992,
      "raan_deg": 151.7152,
      "arg_perigee_deg": 326.2308,
      "mean_anomaly_deg": 33.8519,
      "mean_motion_rev_day": 15.27580788
    }
  ]
}